IRIDIUM 921             
1 24873U 97034E   24214.25705743  .00046601  00000+0  10655-2 0  9998
2 24873  86.3781 265.7430 0005904  93.6198 266.5733 15.42625994482126
IRIDIUM 26              
1 24903U 97043A   24214.46927580  .00000750  00000+0  24916-3 0  9991
2 24903  86.3927 244.7511 0002514  90.6073 269.5412 14.36458970410838
IRIDIUM 22              
1 24907U 97043E   24214.56000615  .00000622  00000+0  21038-3 0  9997
2 24907  86.3929 247.9864 0002267  92.1887 267.9569 14.35344577410915
DUMMY MASS 1            
1 24925U 97048A   24214.50399065  .00000733  00000+0  80104-4 0  9999
2 24925  86.3335 283.0499 0006438 179.1240 180.9997 14.86312283457638
DUMMY MASS 2            
1 24926U 97048B   24214.48065789  .00000787  00000+0  86788-4 0  9993
2 24926  86.3336 284.6123 0006721 193.1762 166.9288 14.86070229457415
IRIDIUM 29              
1 24944U 97051A   24214.47896300  .00000628  00000+0  21024-3 0  9992
2 24944  86.3936 277.9152 0002121  98.9850 261.1586 14.35798216407385
IRIDIUM 33              
1 24946U 97051C   24214.54847724  .00000442  00000+0  15016-3 0  9996
2 24946  86.3851 277.1346 0009491  52.5708 307.6350 14.34434752406919
IRIDIUM 28              
1 24948U 97051E   24214.52245060  .00000643  00000+0  21156-3 0  9996
2 24948  86.3940 275.5931 0002627  87.4844 272.6654 14.36753694407936
